start=new Date('2023-06-28T00:00:00.000Z').valueOf();
sats=[{"INCLINATION":"53.0523","PERIAPSIS":"516.471","CLASSIFICATION_TYPE":"U","RA_OF_ASC_NODE":"46.4290","DECAY_DATE":null,"FILE":"3944493","REF_FRAME":"TEME","EPHEMERIS_TYPE":"0","REV_AT_EPOCH":"19190","OBJECT_ID":"2020-001BE","SITE":"AFETR","EPOCH":"2023-06-27T21:20:01.897440","MEAN_MOTION_DDOT":"0.0000000000000","CENTER_NAME":"EARTH","PERIOD":"94.980","ELEMENT_SET_NO":"999","APOAPSIS":"518.742","MEAN_MOTION_DOT":"0.00030849","ECCENTRICITY":"0.00016470","MEAN_MOTION":"15.16112018","TLE_LINE2":"2 44966  53.0523  46.4290 0001647  72.1099 288.0073 15.16112018191904","SEMIMAJOR_AXIS":"6895.742","GP_ID":"234593899","NORAD_CAT_ID":"44966","BSTAR":"0.00159110000000","OBJECT_TYPE":"PAYLOAD","RCS_SIZE":"LARGE","MEAN_ANOMALY":"288.0073","TIME_SYSTEM":"UTC","TLE_LINE1":"1 44966U 20001BE  23178.88891085  .00030849  00000-0  15911-2 0  9993","COUNTRY_CODE":"US","LAUNCH_DATE":"2020-01-07","OBJECT_NAME":"STARLINK-1088","ARG_OF_PERICENTER":"72.1099","MEAN_ELEMENT_THEORY":"SGP4"},{"APOAPSIS":"548.077","MEAN_MOTION_DOT":"0.00017463","MEAN_MOTION":"15.06378674","ECCENTRICITY":"0.00011530","TLE_LINE2":"2 44967  53.0540  56.4047 0001153 103.0505 257.0613 15.06378674191685","NORAD_CAT_ID":"44967","GP_ID":"234579481","SEMIMAJOR_AXIS":"6925.414","OBJECT_TYPE":"PAYLOAD","BSTAR":"0.00118900000000","RCS_SIZE":"LARGE","MEAN_ANOMALY":"257.0613","TLE_LINE1":"1 44967U 20001BF  23177.92004034  .00017463  00000-0  11890-2 0  9997","TIME_SYSTEM":"UTC","COUNTRY_CODE":"US","LAUNCH_DATE":"2020-01-07","ARG_OF_PERICENTER":"103.0505","OBJECT_NAME":"STARLINK-1089","MEAN_ELEMENT_THEORY":"SGP4","PERIAPSIS":"546.480","INCLINATION":"53.0540","CLASSIFICATION_TYPE":"U","RA_OF_ASC_NODE":"56.4047","DECAY_DATE":null,"REF_FRAME":"TEME","FILE":"3943891","REV_AT_EPOCH":"19168","EPHEMERIS_TYPE":"0","SITE":"AFETR","OBJECT_ID":"2020-001BF","MEAN_MOTION_DDOT":"0.0000000000000","EPOCH":"2023-06-26T22:04:51.485376","CENTER_NAME":"EARTH","ELEMENT_SET_NO":"999","PERIOD":"95.593"},{"CLASSIFICATION_TYPE":"U","INCLINATION":"53.0542","PERIAPSIS":"546.720","DECAY_DATE":null,"RA_OF_ASC_NODE":"52.2464","REF_FRAME":"TEME","FILE":"3944494","SITE":"AFETR","OBJECT_ID":"2020-001BG","REV_AT_EPOCH":"19182","EPHEMERIS_TYPE":"0","CENTER_NAME":"EARTH","MEAN_MOTION_DDOT":"0.0000000000000","EPOCH":"2023-06-27T20:17:06.258912","PERIOD":"95.592","ELEMENT_SET_NO":"999","APOAPSIS":"547.678","MEAN_MOTION_DOT":"0.00017818","MEAN_MOTION":"15.06404819","ECCENTRICITY":"0.00006920","NORAD_CAT_ID":"44968","GP_ID":"234594413","SEMIMAJOR_AXIS":"6925.334","TLE_LINE2":"2 44968  53.0542  52.2464 0000692 128.3612 231.7440 15.06404819191825","MEAN_ANOMALY":"231.7440","RCS_SIZE":"LARGE","OBJECT_TYPE":"PAYLOAD","BSTAR":"0.00121190000000","COUNTRY_CODE":"US","TLE_LINE1":"1 44968U 20001BG  23178.84521133  .00017818  00000-0  12119-2 0  9993","TIME_SYSTEM":"UTC","LAUNCH_DATE":"2020-01-07","MEAN_ELEMENT_THEORY":"SGP4","OBJECT_NAME":"STARLINK-1090","ARG_OF_PERICENTER":"128.3612"},{"PERIOD":"95.594","ELEMENT_SET_NO":"999","MEAN_MOTION_DDOT":"0.0000000000000","EPOCH":"2023-06-27T01:00:00.834912","CENTER_NAME":"EARTH","REV_AT_EPOCH":"19169","EPHEMERIS_TYPE":"0","SITE":"AFETR","OBJECT_ID":"2020-001BH","REF_FRAME":"TEME","FILE":"3943892","RA_OF_ASC_NODE":"55.8530","DECAY_DATE":null,"PERIAPSIS":"546.410","INCLINATION":"53.0542","CLASSIFICATION_TYPE":"U","ARG_OF_PERICENTER":"92.8014","OBJECT_NAME":"STARLINK-1092","MEAN_ELEMENT_THEORY":"SGP4","LAUNCH_DATE":"2020-01-07","TLE_LINE1":"1 44969U 20001BH  23178.04167633  .00016029  00000-0  10932-2 0  9991","TIME_SYSTEM":"UTC","COUNTRY_CODE":"US","OBJECT_TYPE":"PAYLOAD","BSTAR":"0.00109320000000","RCS_SIZE":"LARGE","MEAN_ANOMALY":"267.3119","TLE_LINE2":"2 44969  53.0542  55.8530 0001265  92.8014 267.3119 15.06376299191690","GP_ID":"234579837","NORAD_CAT_ID":"44969","SEMIMAJOR_AXIS":"6925.421","MEAN_MOTION":"15.06376299","ECCENTRICITY":"0.00012650","MEAN_MOTION_DOT":"0.00016029","APOAPSIS":"548.162"},{"CENTER_NAME":"EARTH","EPOCH":"2023-06-27T02:03:42.183360","MEAN_MOTION_DDOT":"0.0000000000000","OBJECT_ID":"2020-001BJ","SITE":"AFETR","EPHEMERIS_TYPE":"0","REV_AT_EPOCH":"19169","ELEMENT_SET_NO":"999","PERIOD":"95.594","DECAY_DATE":null,"RA_OF_ASC_NODE":"55.6559","CLASSIFICATION_TYPE":"U","PERIAPSIS":"546.445","INCLINATION":"53.0547","FILE":"3943892","REF_FRAME":"TEME","COUNTRY_CODE":"US","TIME_SYSTEM":"UTC","TLE_LINE1":"1 44970U 20001BJ  23178.08590490  .00020888  00000-0  14181-2 0  9996","RCS_SIZE":"LARGE","MEAN_ANOMALY":"257.7120","BSTAR":"0.00141810000000","OBJECT_TYPE":"PAYLOAD","MEAN_ELEMENT_THEORY":"SGP4","ARG_OF_PERICENTER":"102.4007","OBJECT_NAME":"STARLINK-1093","LAUNCH_DATE":"2020-01-07","MEAN_MOTION_DOT":"0.00020888","APOAPSIS":"548.156","SEMIMAJOR_AXIS":"6925.435","NORAD_CAT_ID":"44970","GP_ID":"234579501","TLE_LINE2":"2 44970  53.0547  55.6559 0001235 102.4007 257.7120 15.06371646191699","ECCENTRICITY":"0.00012350","MEAN_MOTION":"15.06371646"},{"COUNTRY_CODE":"US","TLE_LINE1":"1 44972U 20001BL  23178.05640947  .00000149  00000-0  28855-4 0  9991","TIME_SYSTEM":"UTC","MEAN_ANOMALY":"267.1151","RCS_SIZE":"LARGE","OBJECT_TYPE":"PAYLOAD","BSTAR":"0.00002885500000","MEAN_ELEMENT_THEORY":"SGP4","ARG_OF_PERICENTER":"92.9952","OBJECT_NAME":"STARLINK-1107","LAUNCH_DATE":"2020-01-07","MEAN_MOTION_DOT":"0.00000149","APOAPSIS":"547.919","GP_ID":"234579522","NORAD_CAT_ID":"44972","SEMIMAJOR_AXIS":"6925.360","TLE_LINE2":"2 44972  53.0543  55.7845 0001002  92.9952 267.1151 15.06396360191701","MEAN_MOTION":"15.06396360","ECCENTRICITY":"0.00010020","CENTER_NAME":"EARTH","MEAN_MOTION_DDOT":"0.0000000000000","EPOCH":"2023-06-27T01:21:13.778208","SITE":"AFETR","OBJECT_ID":"2020-001BL","REV_AT_EPOCH":"19170","EPHEMERIS_TYPE":"0","PERIOD":"95.592","ELEMENT_SET_NO":"999","DECAY_DATE":null,"RA_OF_ASC_NODE":"55.7845","CLASSIFICATION_TYPE":"U","PERIAPSIS":"546.531","INCLINATION":"53.0543","REF_FRAME":"TEME","FILE":"3943905"},{"NORAD_CAT_ID":"44973","GP_ID":"234586762","SEMIMAJOR_AXIS":"6925.383","TLE_LINE2":"2 44973  53.0551  54.4024 0001236  96.6833 263.4297 15.06388620191748","MEAN_MOTION":"15.06388620","ECCENTRICITY":"0.00012360","MEAN_MOTION_DOT":"-0.00000467","APOAPSIS":"548.104","MEAN_ELEMENT_THEORY":"SGP4","ARG_OF_PERICENTER":"96.6833","OBJECT_NAME":"STARLINK-1115","LAUNCH_DATE":"2020-01-07","COUNTRY_CODE":"US","TLE_LINE1":"1 44973U 20001BM  23178.36603554 -.00000467  00000-0 -12498-4 0  9990","TIME_SYSTEM":"UTC","RCS_SIZE":"LARGE","MEAN_ANOMALY":"263.4297","OBJECT_TYPE":"PAYLOAD","BSTAR":"-0.00001249800000","REF_FRAME":"TEME","FILE":"3944192","DECAY_DATE":null,"RA_OF_ASC_NODE":"54.4024","CLASSIFICATION_TYPE":"U","PERIAPSIS":"546.392","INCLINATION":"53.0551","ELEMENT_SET_NO":"999","PERIOD":"95.593","CENTER_NAME":"EARTH","MEAN_MOTION_DDOT":"0.0000000000000","EPOCH":"2023-06-27T08:47:05.470656","SITE":"AFETR","OBJECT_ID":"2020-001BM","REV_AT_EPOCH":"19174","EPHEMERIS_TYPE":"0"},{"FILE":"3940263","REF_FRAME":"TEME","CLASSIFICATION_TYPE":"U","PERIAPSIS":"546.269","INCLINATION":"53.0536","DECAY_DATE":null,"RA_OF_ASC_NODE":"39.2399","ELEMENT_SET_NO":"999","PERIOD":"95.590","OBJECT_ID":"2020-006A","SITE":"AFETR","EPHEMERIS_TYPE":"0","REV_AT_EPOCH":"18724","CENTER_NAME":"EARTH","EPOCH":"2023-06-21T20:00:09.224640","MEAN_MOTION_DDOT":"0.0000000000000","ECCENTRICITY":"0.00012420","MEAN_MOTION":"15.06427571","SEMIMAJOR_AXIS":"6925.264","GP_ID":"234485105","NORAD_CAT_ID":"45044","TLE_LINE2":"2 45044  53.0536  39.2399 0001242  67.0840 293.0280 15.06427571187244","APOAPSIS":"547.989","MEAN_MOTION_DOT":"0.00021941","LAUNCH_DATE":"2020-01-29","MEAN_ELEMENT_THEORY":"SGP4","OBJECT_NAME":"STARLINK-1132","ARG_OF_PERICENTER":"67.0840","RCS_SIZE":"LARGE","MEAN_ANOMALY":"293.0280","BSTAR":"0.00148620000000","OBJECT_TYPE":"PAYLOAD","COUNTRY_CODE":"US","TIME_SYSTEM":"UTC","TLE_LINE1":"1 45044U 20006A   23172.83344010  .00021941  00000-0  14862-2 0  9993"},{"MEAN_MOTION_DOT":"0.00010086","APOAPSIS":"547.909","TLE_LINE2":"2 45045  53.0541  61.0745 0001045  74.6674 285.4430 15.06409353187249","SEMIMAJOR_AXIS":"6925.320","NORAD_CAT_ID":"45045","GP_ID":"234485354","ECCENTRICITY":"0.00010450","MEAN_MOTION":"15.06409353","TIME_SYSTEM":"UTC","TLE_LINE1":"1 45045U 20006B   23172.42151384  .00010086  00000-0  69488-3 0  9992","COUNTRY_CODE":"US","BSTAR":"0.00069488000000","OBJECT_TYPE":"PAYLOAD","RCS_SIZE":"LARGE","MEAN_ANOMALY":"285.4430","OBJECT_NAME":"STARLINK-1120","ARG_OF_PERICENTER":"74.6674","MEAN_ELEMENT_THEORY":"SGP4","LAUNCH_DATE":"2020-01-29","RA_OF_ASC_NODE":"61.0745","DECAY_DATE":null,"PERIAPSIS":"546.461","INCLINATION":"53.0541","CLASSIFICATION_TYPE":"U","FILE":"3940263","REF_FRAME":"TEME","EPOCH":"2023-06-21T10:06:58.795776","MEAN_MOTION_DDOT":"0.0000000000000","CENTER_NAME":"EARTH","EPHEMERIS_TYPE":"0","REV_AT_EPOCH":"18724","OBJECT_ID":"2020-006B","SITE":"AFETR","ELEMENT_SET_NO":"999","PERIOD":"95.592"},{"MEAN_ANOMALY":"275.1958","RCS_SIZE":"LARGE","BSTAR":"0.00138480000000","OBJECT_TYPE":"PAYLOAD","COUNTRY_CODE":"US","TIME_SYSTEM":"UTC","TLE_LINE1":"1 45047U 20006D   23172.82422973  .00020429  00000-0  13848-2 0  9993","LAUNCH_DATE":"2020-01-29","MEAN_ELEMENT_THEORY":"SGP4","ARG_OF_PERICENTER":"84.9177","OBJECT_NAME":"STARLINK-1131","APOAPSIS":"547.968","MEAN_MOTION_DOT":"0.00020429","ECCENTRICITY":"0.00012780","MEAN_MOTION":"15.06442669","SEMIMAJOR_AXIS":"6925.218","GP_ID":"234484608","NORAD_CAT_ID":"45047","TLE_LINE2":"2 45047  53.0553  59.2772 0001278  84.9177 275.1958 15.06442669186969","OBJECT_ID":"2020-006D","SITE":"AFETR","EPHEMERIS_TYPE":"0","REV_AT_EPOCH":"18696","CENTER_NAME":"EARTH","EPOCH":"2023-06-21T19:46:53.448672","MEAN_MOTION_DDOT":"0.0000000000000","ELEMENT_SET_NO":"999","PERIOD":"95.589","CLASSIFICATION_TYPE":"U","INCLINATION":"53.0553","PERIAPSIS":"546.198","DECAY_DATE":null,"RA_OF_ASC_NODE":"59.2772","FILE":"3940263","REF_FRAME":"TEME"}];
